IXPE                    
1 49954U 21121A   24127.58334491  .00003071  00000+0  18811-3 0  9993
2 49954   0.2310 342.2838 0010072  20.9327  44.8018 14.97609769131651
